[Satellite]
VERSION=1.1
NAME=FLOCK 2P-12
NICKNAME=FLOCK 2P-12
TLE1=1 41614U 16040R   17186.12646611  .00001017  00000-0  47232-4 0  9998
TLE2=2 41614  97.4618 248.9747 0011484  28.8483 331.3386 15.22263272 57400
